NORAD_CAT_ID,OBJECT_NAME,OBJECT_TYPE,EPOCH,MEAN_MOTION,ECCENTRICITY,INCLINATION,RA_OF_ASC_NODE,ARG_OF_PERICENTER,MEAN_ANOMALY,BSTAR,MEAN_MOTION_DOT,MEAN_MOTION_DDOT,TLE_LINE0,TLE_LINE1,TLE_LINE2,SEMIMAJOR_AXIS,PERIOD,APOGEE,PERIGEE,DECAYED
53162.0,STARLINK-4114,PAYLOAD,2022-09-29 22:00:00,15.12778669,0.0001381,53.2168,46.0078,86.446,137.4199,-0.067044,-0.01099727,0.0,0 STARLINK-4114,1 53162U 22083AG  22272.91667824 -.01099727  00000-0 -67044-1 0  9999,2 53162  53.2168  46.0078 0001381  86.4460 137.4199 15.12778669  1300,6905.868,95.189,528.686,526.779,0.0
53162.0,STARLINK-4114,PAYLOAD,2022-09-30 06:00:02,15.12000303,0.0001375,53.2173,44.503,88.6059,151.1757,-0.066796,-0.01073996,0.0,0 STARLINK-4114,1 53162U 22083AG  22273.25002315 -.01073996  00000-0 -66796-1 0  9998,2 53162  53.2173  44.5030 0001375  88.6059 151.1757 15.12000303 12306,6908.236999999999,95.238,531.052,529.153,0.0
53162.0,STARLINK-4114,PAYLOAD,2022-09-30 14:00:01,15.11269725,0.0001441999999999,53.2174,43.0011,105.3721,149.2616,-0.070811,-0.01112416,0.0,0 STARLINK-4114,1 53162U 22083AG  22273.58334491 -.01112416  00000-0 -70811-1 0  9991,2 53162  53.2174  43.0011 0001442 105.3721 149.2616 15.11269725  1302,6910.464,95.284,533.325,531.332,0.0
53162.0,STARLINK-4114,PAYLOAD,2022-09-30 22:00:00,15.10496723,0.0001278,53.2168,41.5012,91.1233,177.5355,-0.0711919999999999,-0.01095886,0.0,0 STARLINK-4114,1 53162U 22083AG  22273.91667824 -.01095886  00000-0 -71192-1 0  9991,2 53162  53.2168  41.5012 0001278  91.1233 177.5355 15.10496723  1309,6912.821,95.333,535.57,533.803,0.0
53162.0,STARLINK-4114,PAYLOAD,2022-10-01 06:00:00,15.09623649,0.0001274999999999,53.2172,40.0009,90.5342,191.2535,-0.052038,-0.00791395,0.0,0 STARLINK-4114,1 53162U 22083AG  22274.25001157 -.00791395  00000-0 -52038-1 0  9995,2 53162  53.2172  40.0009 0001275  90.5342 191.2535 15.09623649 12453,6915.486,95.388,538.2330000000002,536.469,0.0
53162.0,STARLINK-4114,PAYLOAD,2022-10-01 14:00:01,15.08947954,0.0001322,53.2174,38.506,84.3912,209.6035,-0.011041,-0.00172338,0.0,0 STARLINK-4114,1 53162U 22083AG  22274.58334491 -.00172338  00000-0 -11041-1 0  9990,2 53162  53.2174  38.5060 0001322  84.3912 209.6035 15.08947954 12503,6917.55,95.431,540.33,538.501,0.0
53162.0,STARLINK-4114,PAYLOAD,2022-10-01 22:00:00,15.0886595,0.0001365,53.2143,37.0021,80.786,224.8533,-0.0016030999999999,-0.00025729,0.0,0 STARLINK-4114,1 53162U 22083AG  22274.91667824 -.00025729  00000-0 -16031-2 0  9992,2 53162  53.2143  37.0021 0001365  80.7860 224.8533 15.08865950 12551,6917.801,95.436,540.61,538.722,0.0
53162.0,STARLINK-4114,PAYLOAD,2022-10-02 14:00:01,15.0885687,0.0001305,53.2143,34.0091,81.554,247.3268,-0.0040259,-0.00063821,0.0,0 STARLINK-4114,1 53162U 22083AG  22275.58334491 -.00063821  00000-0 -40259-2 0  9991,2 53162  53.2143  34.0091 0001305  81.5540 247.3268 15.08856870  1300,6917.829000000002,95.436,540.597,538.7909999999998,0.0
53162.0,STARLINK-4114,PAYLOAD,2022-10-02 22:00:00,15.08829974,0.0001228,53.2141,32.5125,76.2107,264.2588,-0.0023723,-0.00037834,0.0,0 STARLINK-4114,1 53162U 22083AG  22275.91667824 -.00037834  00000-0 -23723-2 0  9999,2 53162  53.2141  32.5125 0001228  76.2107 264.2588 15.08829974  1301,6917.911,95.438,540.626,538.927,0.0
53162.0,STARLINK-4114,PAYLOAD,2022-10-03 06:00:00,15.08803897,0.0001238,53.2143,31.0146,86.4786,265.5597,0.0051648,0.00082795,0.0,0 STARLINK-4114,1 53162U 22083AG  22276.25001157  .00082795  00000-0  51648-2 0  9999,2 53162  53.2143  31.0146 0001238  86.4786 265.5597 15.08803897 12769,6917.991,95.44,540.712,538.999,0.0
53162.0,STARLINK-4114,PAYLOAD,2022-10-03 14:00:01,15.08875035,0.0001357,53.2144,29.5197,75.7791,287.8489,-0.0025784,-0.00041128,0.0,0 STARLINK-4114,1 53162U 22083AG  22276.58334491 -.00041128  00000-0 -25784-2 0  9994,2 53162  53.2144  29.5197 0001357  75.7791 287.8489 15.08875035  1305,6917.773,95.435,540.577,538.7,0.0
53162.0,STARLINK-4114,PAYLOAD,2022-10-03 22:00:00,15.08875349,0.0001419,53.2144,28.0228,73.4448,301.8027,-0.0032628,-0.00051891,0.0,0 STARLINK-4114,1 53162U 22083AG  22276.91667824 -.00051891  00000-0 -32628-2 0  9993,2 53162  53.2144  28.0228 0001419  73.4448 301.8027 15.08875349 12863,6917.772,95.435,540.619,538.656,0.0
53162.0,STARLINK-4114,PAYLOAD,2022-10-04 14:00:01,15.08857349,0.0001436,53.2149,25.0301,73.2395,325.2314,-0.0028215999999999,-0.00044935,0.0,0 STARLINK-4114,1 53162U 22083AG  22277.58334491 -.00044935  00000-0 -28216-2 0  9997,2 53162  53.2149  25.0301 0001436  73.2395 325.2314 15.08857349 12965,6917.8269999999975,95.436,540.686,538.6990000000002,0.0
53162.0,STARLINK-4114,PAYLOAD,2022-10-04 22:00:00,15.08860176,0.0001361999999999,53.215,23.5332,67.5578,342.5043,-0.003421,-0.00054352,0.0,0 STARLINK-4114,1 53162U 22083AG  22277.91667824 -.00054352  00000-0 -34210-2 0  9998,2 53162  53.2150  23.5332 0001362  67.5578 342.5043 15.08860176  1300,6917.819,95.436,540.626,538.742,0.0
53162.0,STARLINK-4114,PAYLOAD,2022-10-05 06:00:00,15.08891508,0.0001443999999999,53.2162,22.0388,77.0828,344.5615,-0.010983,-0.00171198,0.0,0 STARLINK-4114,1 53162U 22083AG  22278.25001157 -.00171198  00000-0 -10983-1 0  9995,2 53162  53.2162  22.0388 0001444  77.0828 344.5615 15.08891508 13069,6917.723000000001,95.434,540.587,538.589,0.0
53162.0,STARLINK-4114,PAYLOAD,2022-10-05 14:00:01,15.08829717,0.0001536,53.2155,20.5407,71.889,1.4104,-0.0010968,-0.00017696,0.0,0 STARLINK-4114,1 53162U 22083AG  22278.58335648 -.00017696  00000-0 -10968-2 0  9992,2 53162  53.2155  20.5407 0001536  71.8890   1.4104 15.08829717  1308,6917.9119999999975,95.438,540.839,538.714,0.0
53162.0,STARLINK-4114,PAYLOAD,2022-10-05 22:00:00,15.08826736,0.0001421,53.2155,19.0437,70.0491,14.7626,-0.00054097,-8.884e-05,0.0,0 STARLINK-4114,1 53162U 22083AG  22278.91667824 -.00008884  00000-0 -54097-3 0  9994,2 53162  53.2155  19.0437 0001421  70.0491  14.7626 15.08826736  1309,6917.920999999999,95.438,540.769,538.803,0.0
53162.0,STARLINK-4114,PAYLOAD,2022-10-06 14:00:01,15.087941,0.0001309,53.2174,16.0585,66.6253,41.3315,0.0040832,0.00065215,0.0,0 STARLINK-4114,1 53162U 22083AG  22279.58334491  .00065215  00000-0  40832-2 0  9999,2 53162  53.2174  16.0585 0001309  66.6253  41.3315 15.08794100  1303,6918.021,95.44,540.7909999999998,538.98,0.0
53162.0,STARLINK-4114,PAYLOAD,2022-10-06 22:42:55,15.08850931,0.0001334,53.2158,14.4205,70.4211,211.0635,-0.0016765,-0.00026878,0.0,0 STARLINK-4114,1 53162U 22083AG  22279.94646991 -.00026878  00000-0 -16765-2 0  9992,2 53162  53.2158  14.4205 0001334  70.4211 211.0635 15.08850931 13311,6917.847,95.437,540.635,538.789,0.0
53162.0,STARLINK-4114,PAYLOAD,2022-10-07 14:00:01,15.08843947,0.0001494,53.2158,11.5626,70.2056,72.5752,-0.0016872,-0.00027042,0.0,0 STARLINK-4114,1 53162U 22083AG  22280.58334491 -.00027042  00000-0 -16872-2 0  9996,2 53162  53.2158  11.5626 0001494  70.2056  72.5752 15.08843947 13418,6917.868,95.437,540.7669999999998,538.7,0.0
53162.0,STARLINK-4114,PAYLOAD,2022-10-07 22:00:00,15.08833372,0.0001431999999999,53.2156,10.0653,72.7735,81.5931,-0.0021822,-0.00034844,0.0,0 STARLINK-4114,1 53162U 22083AG  22280.91667824 -.00034844  00000-0 -21822-2 0  9991,2 53162  53.2156  10.0653 0001432  72.7735  81.5931 15.08833372  1308,6917.901,95.438,540.756,538.775,0.0
53162.0,STARLINK-4114,PAYLOAD,2022-10-08 14:00:01,15.08811427,0.0001604,53.2155,7.0738,72.0397,105.4751,0.0008761,0.00013672,0.0,0 STARLINK-4114,1 53162U 22083AG  22281.58334491  .00013672  00000-0  87610-3 0  9998,2 53162  53.2155   7.0738 0001604  72.0397 105.4751 15.08811427  1308,6917.968000000003,95.439,540.942,538.7230000000002,0.0
53162.0,STARLINK-4114,PAYLOAD,2022-10-08 22:00:00,15.08831019,0.0001449,53.2152,5.5764,74.0202,115.0658,-0.0014460999999999,-0.00023223,0.0,0 STARLINK-4114,1 53162U 22083AG  22281.91667824 -.00023223  00000-0 -14461-2 0  9992,2 53162  53.2152   5.5764 0001449  74.0202 115.0658 15.08831019  1303,6917.908,95.438,540.775,538.77,0.0
53162.0,STARLINK-4114,PAYLOAD,2022-10-09 14:00:01,15.08847147,0.0001481,53.2151,2.585,69.8329,142.4211,0.00041862,6.382e-05,0.0,0 STARLINK-4114,1 53162U 22083AG  22282.58334491  .00006382  00000-0  41862-3 0  9998,2 53162  53.2151   2.5850 0001481  69.8329 142.4211 15.08847147  1301,6917.859,95.437,540.748,538.6990000000002,0.0
53162.0,STARLINK-4114,PAYLOAD,2022-10-09 22:00:00,15.08869738,0.0001305,53.2154,1.0884,69.1053,154.7579,-0.0036633,-0.00058165,0.0,0 STARLINK-4114,1 53162U 22083AG  22282.91667824 -.00058165  00000-0 -36633-2 0  9991,2 53162  53.2154   1.0884 0001305  69.1053 154.7579 15.08869738  1300,6917.7890000000025,95.436,540.557,538.752,0.0
53162.0,STARLINK-4114,PAYLOAD,2022-10-10 14:00:01,15.08815573,0.0001513,53.2172,358.1024,65.9074,181.1442,0.0021125999999999,0.00033472,0.0,0 STARLINK-4114,1 53162U 22083AG  22283.58334491  .00033472  00000-0  21126-2 0  9999,2 53162  53.2172 358.1024 0001513  65.9074 181.1442 15.08815573 13865,6917.955,95.439,540.867,538.773,0.0
53162.0,STARLINK-4114,PAYLOAD,2022-10-10 22:00:01,15.08982475,0.0001386999999999,53.2162,356.6021,65.7679,192.9935,-0.0246879999999999,-0.00374694,0.0,0 STARLINK-4114,1 53162U 22083AG  22283.91668981 -.00374694  00000-0 -24688-1 0  9991,2 53162  53.2162 356.6021 0001387  65.7679 192.9935 15.08982475  1301,6917.445,95.429,540.269,538.35,0.0
53162.0,STARLINK-4114,PAYLOAD,2022-10-11 06:00:00,15.08822425,0.0001431999999999,53.2152,355.1021,74.5602,195.7246,-0.0021945999999999,-0.00035029,0.0,0 STARLINK-4114,1 53162U 22083AG  22284.25001157 -.00035029  00000-0 -21946-2 0  9996,2 53162  53.2152 355.1021 0001432  74.5602 195.7246 15.08822425 13968,6917.934,95.439,540.79,538.808,0.0
53162.0,STARLINK-4114,PAYLOAD,2022-10-11 14:00:01,15.08748704,0.0001511,53.2162,353.6107,69.7323,212.1184,0.0090298,0.00146051,0.0,0 STARLINK-4114,1 53162U 22083AG  22284.58334491  .00146051  00000-0  90298-2 0  9994,2 53162  53.2162 353.6107 0001511  69.7323 212.1184 15.08748704  1308,6918.159000000002,95.443,541.07,538.979,0.0
